[{"OBJECT_NAME":"STARLINK-1856","OBJECT_ID":"2020-088X","EPOCH":"2026-03-10T00:00:02.999808","MEAN_MOTION":15.49188695,"ECCENTRICITY":0.0006619,"INCLINATION":53.0514,"RA_OF_ASC_NODE":271.7425,"ARG_OF_PERICENTER":153.2218,"MEAN_ANOMALY":212.208,"EPHEMERIS_TYPE":0,"CLASSIFICATION_TYPE":"U","NORAD_CAT_ID":47143,"ELEMENT_SET_NO":999,"REV_AT_EPOCH":590,"BSTAR":0.0029309484,"MEAN_MOTION_DOT":0.00165467,"MEAN_MOTION_DDOT":0},{"OBJECT_NAME":"COSMOS 1842","OBJECT_ID":"1987-038A","EPOCH":"2026-03-09T14:43:10.222464","MEAN_MOTION":15.51950843,"ECCENTRICITY":0.0004062,"INCLINATION":82.5034,"RA_OF_ASC_NODE":279.1483,"ARG_OF_PERICENTER":308.2254,"MEAN_ANOMALY":51.8632,"EPHEMERIS_TYPE":0,"CLASSIFICATION_TYPE":"U","NORAD_CAT_ID":17911,"ELEMENT_SET_NO":999,"REV_AT_EPOCH":12530,"BSTAR":0.00045657,"MEAN_MOTION_DOT":0.00027505,"MEAN_MOTION_DDOT":0}]
